#cP2022  4  4 12  0  0.00000000     576 d+D   IGb14 EXT AIUB
## 2204 129600.00000000   300.00000000 59673 0.5000000000000
+   68   G01G02G03G04G05G06G07G08G09G10G11G12G13G14G15G16G17
+        G18G19G20G21G22G23G24G25G26G27G28G29G30G31G32R01R02
+        R03R04R05R07R08R09R12R13R14R15R17R18R19R20R21R22R24
+        E01E02E03E04E05E07E08E09E14E18E19E21E24E25E27E30E31
+          0  0  0  0  0  0  0  0  0  0  0  0  0  0  0  0  0
++         6  8  6  7  7  7  7  6  6  6  9  7  7  7  7  7  7
++         9  7  7  8  7  6  6  6  6  6  7  7  6  7  6  8  6
++         7  6  7  7  6  5  7  8  7  7  7  7  8  9  7  8  7
++         7  6  6  6  6  6  5  7  6  7  7  7  6  6  7  6  6
++         0  0  0  0  0  0  0  0  0  0  0  0  0  0  0  0  0
%c M  cc GPS ccc cccc cccc cccc cccc ccccc ccccc ccccc ccccc
%c cc cc ccc ccc cccc cccc cccc cccc ccccc ccccc ccccc ccccc
%f  1.2500000  1.025000000  0.00000000000  0.000000000000000
%f  0.0000000  0.000000000  0.00000000000  0.000000000000000
%i    0    0    0    0      0      0      0      0         0
%i    0    0    0    0      0      0      0      0         0
/* Center for Orbit Determination in Europe (CODE)          
/* Ultra-rapid GRE orbits starting year-day 22094 12 hour   
/* Observed/predicted: 24/24 hours (data used up to 095L)   
/* PCV:IGS14      OL/AL:FES2014b NONE     YN ORB:CoN CLK:BRD
*  2022  4  5 21 25  0.00000000
PG01  18945.003468   9161.546588  16131.079496    391.809942               P   P
PG02 -14519.504347 -21942.140115   3641.965412   -652.930251               P   P
PG03  16467.716681  -1921.186705  20618.806718   -194.614014               P   P
PG04  26376.717881   1127.773095   3306.486478   -178.259107               P   P
PG05  -9465.408600 -14269.748293 -20426.407277    -77.255174               P   P
PG06  -1946.879500 -21314.309360  15740.947338    256.317290               P   P
PG07  13328.353968  -7472.646757 -21347.322233    319.201181               P   P
PG08  22548.165820   6631.415235 -12744.859455    -62.721127               P   P
PG09  24428.110058  -7587.217267  -7274.637332   -345.566442               P   P
PG10 -11350.322124  23834.503768   -116.959505   -369.621371               P   P
PG11 -12654.561214 -23284.519370   1894.185227    -49.196183               P   P
PG12 -15178.477352  -2877.865352  21319.630175   -195.889942               P   P
PG13 -15246.877376 -13004.760777 -17666.497475    289.069371               P   P
PG14  13017.959505 -23073.562661  -1129.470883   -100.251036               P   P
PG15 -23446.564619  -4529.424199 -12363.136811    -71.210236               P   P
PG16   4506.435820  18050.132727 -19045.321499   -488.619168               P   P
PG17  12090.853462 -13537.158444  19841.149280    596.584232               P   P
PG18 -13091.077465   7349.111985 -21917.194483    202.700494               P   P
PG19   4234.540597 -14439.010617  21606.859825    140.533389               P   P
PG20  -4141.519757 -22210.726012 -14144.362697    515.963399               P   P
PG21  20222.053622  16253.823394   7777.882750    160.166915               P   P
PG22   -635.110193  15387.108985  22047.297635    238.756632               P   P
PG23 -16144.284490  18016.442316 -10862.007407    -12.688891               P   P
PG24 -20758.080506 -11513.284509  12025.618125    260.300316               P   P
PG25 -17623.551828  11658.988420  15632.104284    308.075369               P   P
PG26  -2606.457557  24555.886445  -9445.593437    196.412655               P   P
PG27  12358.978604  12738.164985 -20089.978433    175.569018               P   P
PG28   7930.284754 -24289.644005   8183.132115    373.653227               P   P
PG29 -25487.890355   4310.967370  -6291.916804   -499.750819               P   P
PG30   6929.491335 -16021.827862 -19878.230694   -522.378098               P   P
PG31   3367.338110  22397.222869  13358.331603   -172.142768               P   P
PG32  -8455.606026  15044.772436  20277.979935    -99.317068               P   P
PR01   5814.801364   9406.896743  22993.176795      7.589817               P   P
PR02  20570.032441  -3920.964222  14657.914992    514.662813               P   P
PR03  21452.668467 -13704.796390  -1972.143004     54.425069               P   P
PR04  10487.478349 -15486.105030 -17315.807486    135.297859               P   P
PR05  -6245.942967  -8855.270325 -23074.266669     90.650269               P   P
PR07 -21124.544090  13972.399381   2868.912608     33.497810               P   P
PR08 -10190.707366  15590.211986  17478.366397    -64.420514               P   P
PR09 -11245.594970  -4209.708992  22510.622623     48.208472               P   P
PR12   6463.790492  21020.917569 -12885.605844     17.767772               P   P
PR13  10871.047641   5677.538078 -22385.428914    -20.430423               P   P
PR14   8932.994494 -14503.456696 -18974.943156     76.187775               P   P
PR15   1834.526409 -25044.014281  -4470.825182     97.055919               P   P
PR17  14512.227138  -2567.788718  20817.341975    515.153559               P   P
PR18  -1021.192535 -12204.793617  22378.023131    112.600566               P   P
PR19 -14900.434949 -16039.671009  13085.596775   -184.278924               P   P
PR20 -22283.944600 -10217.572335  -6952.636286    -68.053777               P   P
PR21 -13372.924643   3395.631775 -21460.653593   -291.016366               P   P
PR22   1992.269058  12623.177523 -22111.368289   -175.036428               P   P
PR24  22565.101036   9166.958363   7585.494097     87.725868               P   P
PE01 -16747.183716  -2029.510043  24317.346295   -610.731892               P   P
PE02  16808.705125   1819.012172 -24305.241170    290.939970               P   P
PE03  28246.965936    490.489680   8818.066875   -544.937963               P   P
PE04 -25330.832693  12066.133373   9442.495687  -1000.196059               P   P
PE05  14604.490506  12995.527159  22233.161471   -193.588177               P   P
PE07   7328.777720 -17750.666107 -22511.787223   -655.650924               P   P
PE08  25100.735289 -12260.905687  -9764.540843   -507.365693               P   P
PE09  -7096.008847  17658.356139  22682.923297   -474.171041               P   P
PE14  20221.238116  -8220.059241   9453.840611  -1803.723002               P   P
PE18 -21686.722503  15420.208506 -18523.221999  -1599.075430               P   P
PE19 -27395.086007  -2179.603945 -10982.514797  -2524.888946               P   P
PE21  -7375.781316 -20661.487886  19868.006364   -726.748686               P   P
PE24  -7713.496534  28447.093394  -2593.735268   -544.952452               P   P
PE25   7208.546835  20856.112786 -19724.958948   -569.348272               P   P
PE27   6797.465902 -28570.144374   3754.963021   -269.574782               P   P
PE30  17250.384510 -18655.978453 -15212.992665   -407.067972               P   P
PE31 -16849.656936  19591.611158  14433.842305   -494.610978               P   P
EOF
